FLOCK 4G-21             
1 62651U 25009AU  26068.19487675  .00013648  00000+0  49619-3 0  9998
2 62651  97.4032 151.1274 0000465 329.5782  30.5431 15.28381075 63677
STARLINK-35985          
1 66815U 25278AA  26068.19404176  .00030303  00000+0  11062-2 0  9994
2 66815  43.0024 117.1271 0001005 232.4448 127.6312 15.27580568 16347
